{"type":"FeatureCollection","features":[{"type":"Feature","properties":{"code":"0500506001","name":"Bgy. 47 - Arimbay","areaSqKm":1.07664468074},"geometry":{"type":"Polygon","coordinates":[[[123.74844024900005,13.190481937000072],[123.75752711000007,13.18569463800003],[123.75473345900002,13.177360734000047],[123.74889002300006,13.178362614000037],[123.74844024900005,13.190481937000072]]]}},{"type":"Feature","properties":{"code":"0500506002","name":"Bgy. 64 - Bagacay","areaSqKm":3.77636356549},"geometry":{"type":"Polygon","coordinates":[[[123.74715294500004,13.084727956000052],[123.76011041600009,13.080088153000077],[123.7642599300001,13.069419347000064],[123.75211051700012,13.063242415000047],[123.74372004100007,13.069804754000074],[123.74715294500004,13.084727956000052]]]}},{"type":"Feature","properties":{"code":"0500506003","name":"Bgy. 48 - Bagong Abre","areaSqKm":1.26782375406},"geometry":{"type":"Polygon","coordinates":[[[123.73971891000008,13.196488425000041],[123.74822215000006,13.19060545900004],[123.74726282600011,13.183400427000038],[123.73431356600008,13.190875469000048],[123.73971891000008,13.196488425000041]]]}},{"type":"Feature","properties":{"code":"0500506004","name":"Bgy. 66 - Banquerohan","areaSqKm":14.9587992032},"geometry":{"type":"Polygon","coordinates":[[[123.74011262600004,13.071542390000047],[123.76952062500004,13.054999331000033],[123.775600929,13.028283157000033],[123.72379858500005,13.041307884000048],[123.72041504700007,13.055608247000066],[123.74011262600004,13.071542390000047]]]}},{"type":"Feature","properties":{"code":"0500506005","name":"Bgy. 1 - Em's Barrio","areaSqKm":0.429407567275},"geometry":{"type":"Polygon","coordinates":[[[123.72349777500006,13.146010537000052],[123.73176557400006,13.147009886000035],[123.7271544890001,13.143126627000072],[123.72349777500006,13.146010537000052]]]}},{"type":"Feature","properties":{"code":"0500506007","name":"Bgy. 11 - Maoyod Pob.","areaSqKm":0.175251725818},"geometry":{"type":"Polygon","coordinates":[[[123.73162551300004,13.136113647000059],[123.73311519300012,13.132976849000045],[123.72745111400002,13.13345686200006],[123.73162551300004,13.136113647000059]]]}},{"type":"Feature","properties":{"code":"0500506008","name":"Bgy. 12 - Tula-tula","areaSqKm":0.120316252345},"geometry":{"type":"Polygon","coordinates":[[[123.732604906,13.135707529000058],[123.7355636750001,13.133701804000054],[123.7336954540001,13.132815333000053],[123.732604906,13.135707529000058]]]}},{"type":"Feature","properties":{"code":"0500506009","name":"Bgy. 13 - Ilawod West Pob.","areaSqKm":0.0354746214022},"geometry":{"type":"Polygon","coordinates":[[[123.73392601800003,13.136357672000031],[123.73516960300003,13.13850455100004],[123.73564767500011,13.136207023000054],[123.73392601800003,13.136357672000031]]]}},{"type":"Feature","properties":{"code":"0500506010","name":"Bgy. 14 - Ilawod Pob.","areaSqKm":0.0873448829988},"geometry":{"type":"Polygon","coordinates":[[[123.73564322100003,13.135319800000048],[123.73746059000007,13.136550438000029],[123.7398071020001,13.135954608000077],[123.73564322100003,13.135319800000048]]]}},{"type":"Feature","properties":{"code":"0500506011","name":"Bgy. 15 - Ilawod East Pob.","areaSqKm":0.260257041034},"geometry":{"type":"Polygon","coordinates":[[[123.73707885600004,13.136898823000024],[123.74499538100008,13.138214327000071],[123.74464886500004,13.133873986000026],[123.73707885600004,13.136898823000024]]]}},{"type":"Feature","properties":{"code":"0500506012","name":"Bgy. 16 - Kawit-East Washington Drive","areaSqKm":0.487285656608},"geometry":{"type":"Polygon","coordinates":[[[123.73467558000004,13.13920906800007],[123.73926937200008,13.147931718000052],[123.73719967700004,13.139216728000065],[123.73467558000004,13.13920906800007]]]}},{"type":"Feature","properties":{"code":"0500506013","name":"Bgy. 17 - Rizal Street., Ilawod","areaSqKm":0.313719477771},"geometry":{"type":"Polygon","coordinates":[[[123.73926937200008,13.147931718000052],[123.74234753500002,13.13881191400003],[123.73516960300003,13.13850455100004],[123.73926937200008,13.147931718000052]]]}},{"type":"Feature","properties":{"code":"0500506015","name":"Bgy. 19 - Cabagñan","areaSqKm":0.195626647152},"geometry":{"type":"Polygon","coordinates":[[[123.74531912700002,13.142284395000047],[123.75054387500006,13.138056358000028],[123.74826420300008,13.136745965000046],[123.74531912700002,13.142284395000047]]]}},{"type":"Feature","properties":{"code":"0500506016","name":"Bgy. 2 - Em's Barrio South","areaSqKm":0.362821309726},"geometry":{"type":"Polygon","coordinates":[[[123.71997593300011,13.142346197000052],[123.728858381,13.142042228000037],[123.71955540700003,13.139510260000066],[123.71997593300011,13.142346197000052]]]}},{"type":"Feature","properties":{"code":"0500506017","name":"Bgy. 18 - Cabagñan West","areaSqKm":0.489203067107},"geometry":{"type":"Polygon","coordinates":[[[123.7430191950001,13.147761368000033],[123.74826420300008,13.136745965000046],[123.74543049400006,13.135328676000029],[123.74112701900003,13.137809976000028],[123.7430191950001,13.147761368000033]]]}},{"type":"Feature","properties":{"code":"0500506018","name":"Bgy. 21 - Binanuahan West","areaSqKm":0.0459455936757},"geometry":{"type":"Polygon","coordinates":[[[123.74967961300001,13.141451516000075],[123.75146157200004,13.138281555000049],[123.75054387500006,13.138056358000028],[123.74967961300001,13.141451516000075]]]}},{"type":"Feature","properties":{"code":"0500506019","name":"Bgy. 22 - Binanuahan East","areaSqKm":0.0763923784054},"geometry":{"type":"Polygon","coordinates":[[[123.75094592000005,13.140141630000073],[123.7542555870001,13.13887900800006],[123.75092996800004,13.139428876000068],[123.75094592000005,13.140141630000073]]]}},{"type":"Feature","properties":{"code":"0500506020","name":"Bgy. 23 - Imperial Court Subd.","areaSqKm":0.0621632124676},"geometry":{"type":"Polygon","coordinates":[[[123.75094592000005,13.140141630000073],[123.754354,13.141651884000055],[123.75427200700005,13.140200209000056],[123.75094592000005,13.140141630000073]]]}},{"type":"Feature","properties":{"code":"0500506021","name":"Bgy. 20 - Cabagñan East","areaSqKm":0.105109592313},"geometry":{"type":"Polygon","coordinates":[[[123.7475780200001,13.14283976300004],[123.75090811400003,13.142011768000032],[123.74964238000007,13.139286428000048],[123.7475780200001,13.14283976300004]]]}},{"type":"Feature","properties":{"code":"0500506022","name":"Bgy. 25 - Lapu-lapu","areaSqKm":0.0607487831299},"geometry":{"type":"Polygon","coordinates":[[[123.75294645200006,13.14418160200006],[123.75501158700001,13.14512214900003],[123.754516867,13.142568347000065],[123.75294645200006,13.14418160200006]]]}},{"type":"Feature","properties":{"code":"0500506023","name":"Bgy. 26 - Dinagaan","areaSqKm":0.0450842257827},"geometry":{"type":"Polygon","coordinates":[[[123.75285632900011,13.147275536000052],[123.75584519200004,13.146145090000061],[123.75501158700001,13.14512214900003],[123.75285632900011,13.147275536000052]]]}},{"type":"Feature","properties":{"code":"0500506024","name":"Bgy. 27 - Victory Village South","areaSqKm":0.0721380499991},"geometry":{"type":"Polygon","coordinates":[[[123.75679061400001,13.143499908000024],[123.75987424100003,13.143543618000024],[123.754516867,13.142568347000065],[123.75679061400001,13.143499908000024]]]}},{"type":"Feature","properties":{"code":"0500506025","name":"Bgy. 28 - Victory Village North","areaSqKm":0.0616249210162},"geometry":{"type":"Polygon","coordinates":[[[123.75474511300001,13.144842330000074],[123.75758772900008,13.143896264000034],[123.754516867,13.142568347000065],[123.75474511300001,13.144842330000074]]]}},{"type":"Feature","properties":{"code":"0500506026","name":"Bgy. 29 - Sabang","areaSqKm":0.0482099417908},"geometry":{"type":"Polygon","coordinates":[[[123.75721489600005,13.147538507000036],[123.75941443500005,13.146475991000045],[123.75437598000008,13.146645484000032],[123.75721489600005,13.147538507000036]]]}},{"type":"Feature","properties":{"code":"0500506027","name":"Bgy. 3 - Em's Barrio East","areaSqKm":0.0863929084352},"geometry":{"type":"Polygon","coordinates":[[[123.73051374200008,13.146050758000058],[123.72934524300001,13.142184342000064],[123.7271544890001,13.143126627000072],[123.73051374200008,13.146050758000058]]]}},{"type":"Feature","properties":{"code":"0500506028","name":"Bgy. 36 - Kapantawan","areaSqKm":0.112062731896},"geometry":{"type":"Polygon","coordinates":[[[123.75070768800003,13.148315668000066],[123.75242943300009,13.146676354000022],[123.74785773500003,13.14386388500003],[123.75070768800003,13.148315668000066]]]}},{"type":"Feature","properties":{"code":"0500506029","name":"Bgy. 30 - Pigcale","areaSqKm":0.0396253618818},"geometry":{"type":"Polygon","coordinates":[[[123.75408347600012,13.147915021000074],[123.75721489600005,13.147538507000036],[123.75437598000008,13.146645484000032],[123.75408347600012,13.147915021000074]]]}},{"type":"Feature","properties":{"code":"0500506030","name":"Bgy. 31 - Centro-Baybay","areaSqKm":0.098134439091},"geometry":{"type":"Polygon","coordinates":[[[123.75306248900006,13.150158866000027],[123.75690106800005,13.148510568000063],[123.75370603400006,13.147817350000025],[123.75306248900006,13.150158866000027]]]}},{"type":"Feature","properties":{"code":"0500506032","name":"Bgy. 33 - PNR-Peñaranda St.-Iraya","areaSqKm":0.155509123043},"geometry":{"type":"Polygon","coordinates":[[[123.74920392100012,13.151485981000064],[123.75297278500011,13.153797216000044],[123.7541113420001,13.150390655000024],[123.74920392100012,13.151485981000064]]]}},{"type":"Feature","properties":{"code":"0500506033","name":"Bgy. 34 - Oro Site-Magallanes St.","areaSqKm":0.144902116023},"geometry":{"type":"Polygon","coordinates":[[[123.74921087100006,13.149654745000078],[123.75370603400006,13.147817350000025],[123.75285632900011,13.147275536000052],[123.74921087100006,13.149654745000078]]]}},{"type":"Feature","properties":{"code":"0500506034","name":"Bgy. 35 - Tinago","areaSqKm":0.0272385341394},"geometry":{"type":"Polygon","coordinates":[[[123.75084763900009,13.146066360000077],[123.7529622190001,13.145084215000054],[123.75307876200009,13.144551801000034],[123.75084763900009,13.146066360000077]]]}},{"type":"Feature","properties":{"code":"0500506035","name":"Bgy. 37 - Bitano","areaSqKm":0.604851200364},"geometry":{"type":"Polygon","coordinates":[[[123.74322326300012,13.152313880000065],[123.75070768800003,13.148315668000066],[123.74531912700002,13.142284395000047],[123.7437010640001,13.143321449000041],[123.74322326300012,13.152313880000065]]]}},{"type":"Feature","properties":{"code":"0500506037","name":"Bgy. 39 - Bonot","areaSqKm":0.47410677145},"geometry":{"type":"Polygon","coordinates":[[[123.74920044300006,13.155064757000048],[123.75691193900002,13.15916634000007],[123.75276288600003,13.153641595000067],[123.74920044300006,13.155064757000048]]]}},{"type":"Feature","properties":{"code":"0500506038","name":"Bgy. 4 - Sagpon Pob.","areaSqKm":0.112662001947},"geometry":{"type":"Polygon","coordinates":[[[123.72934524300001,13.142184342000064],[123.72993425900006,13.140429425000036],[123.72525227800008,13.141609150000022],[123.72934524300001,13.142184342000064]]]}},{"type":"Feature","properties":{"code":"0500506039","name":"Bgy. 5 - Sagmin Pob.","areaSqKm":0.0530438096014},"geometry":{"type":"Polygon","coordinates":[[[123.73168383600012,13.142159178000043],[123.73215605700011,13.139713456000038],[123.72993425900006,13.140429425000036],[123.73168383600012,13.142159178000043]]]}},{"type":"Feature","properties":{"code":"0500506040","name":"Bgy. 6 - Bañadero Pob.","areaSqKm":0.374410173779},"geometry":{"type":"Polygon","coordinates":[[[123.72230472800004,13.138479593000056],[123.7313987010001,13.139614317000053],[123.72435322900003,13.135109616000022],[123.72230472800004,13.138479593000056]]]}},{"type":"Feature","properties":{"code":"0500506041","name":"Bgy. 7 - Baño","areaSqKm":0.070389950969},"geometry":{"type":"Polygon","coordinates":[[[123.73245632600003,13.139027763000058],[123.73463759100002,13.14126213000003],[123.73516960300003,13.13850455100004],[123.73245632600003,13.139027763000058]]]}},{"type":"Feature","properties":{"code":"0500506042","name":"Bgy. 8 - Bagumbayan","areaSqKm":0.367090269308},"geometry":{"type":"Polygon","coordinates":[[[123.734539906,13.150487593000037],[123.7367473380001,13.14361355400007],[123.73530673000005,13.140599043000066],[123.73072074900006,13.142528191000054],[123.734539906,13.150487593000037]]]}},{"type":"Feature","properties":{"code":"0500506043","name":"Bgy. 9 - Pinaric","areaSqKm":0.262448024547},"geometry":{"type":"Polygon","coordinates":[[[123.72435322900003,13.135109616000022],[123.73162551300004,13.136113647000059],[123.72505100900003,13.133845183000062],[123.72435322900003,13.135109616000022]]]}},{"type":"Feature","properties":{"code":"0500506044","name":"Bgy. 67 - Bariis","areaSqKm":15.846860973},"geometry":{"type":"Polygon","coordinates":[[[123.71486563300004,13.039950008000062],[123.775600929,13.028283157000033],[123.75840614000003,13.012106215000074],[123.76798332800001,13.008446209000056],[123.7656268180001,12.998209528000075],[123.74598040500007,12.996885520000035],[123.73445022100009,13.026391081000043],[123.72131722200004,13.027112712000076],[123.71486563300004,13.039950008000062]]]}},{"type":"Feature","properties":{"code":"0500506045","name":"Bgy. 49 - Bigaa","areaSqKm":2.03454084085},"geometry":{"type":"Polygon","coordinates":[[[123.75032859300006,13.205661292000059],[123.76141536700004,13.201325857000029],[123.757423549,13.18564555000006],[123.74781488700012,13.190943410000045],[123.75032859300006,13.205661292000059]]]}},{"type":"Feature","properties":{"code":"0500506046","name":"Bgy. 41 - Bogtong","areaSqKm":1.30476942489},"geometry":{"type":"Polygon","coordinates":[[[123.72914132200003,13.165393958000038],[123.73687189100008,13.164919259000044],[123.7468463890001,13.163035663000073],[123.72830442800011,13.153824092000036],[123.72914132200003,13.165393958000038]]]}},{"type":"Feature","properties":{"code":"0500506047","name":"Bgy. 53 - Bonga","areaSqKm":3.98261843942},"geometry":{"type":"Polygon","coordinates":[[[123.71953605100009,13.21739466300005],[123.73598625500006,13.18949483700004],[123.72325859000011,13.180042658000048],[123.7135393750001,13.216337023000051],[123.71953605100009,13.21739466300005]]]}},{"type":"Feature","properties":{"code":"0500506048","name":"Bgy. 69 - Buenavista","areaSqKm":13.2446226771},"geometry":{"type":"Polygon","coordinates":[[[123.79628199700005,13.04655516300005],[123.81195387700006,13.05216394100006],[123.86231079600009,13.041738276000046],[123.82829471200012,13.026915577000068],[123.79643590300009,13.026671204000024],[123.79628199700005,13.04655516300005]]]}},{"type":"Feature","properties":{"code":"0500506049","name":"Bgy. 51 - Buyuan","areaSqKm":3.9680033722},"geometry":{"type":"Polygon","coordinates":[[[123.72683737500006,13.218498108000063],[123.7501325720001,13.205698204000043],[123.74781488700012,13.190943410000045],[123.72786964900001,13.203082040000027],[123.72683737500006,13.218498108000063]]]}},{"type":"Feature","properties":{"code":"0500506050","name":"Bgy. 70 - Cagbacong","areaSqKm":13.8561428336},"geometry":{"type":"Polygon","coordinates":[[[123.775600929,13.028283157000033],[123.82829471200012,13.026915577000068],[123.80564823300006,13.01902807700003],[123.76765605700007,12.986184890000061],[123.76215491200003,12.997107576000076],[123.76842571400005,13.007477184000038],[123.75840614000003,13.012106215000074],[123.775600929,13.028283157000033]]]}},{"type":"Feature","properties":{"code":"0500506051","name":"Bgy. 40 - Cruzada","areaSqKm":1.44515715191},"geometry":{"type":"Polygon","coordinates":[[[123.74079621800001,13.16167992000004],[123.74329597700012,13.147733594000044],[123.72539858000005,13.151851602000022],[123.74079621800001,13.16167992000004]]]}},{"type":"Feature","properties":{"code":"0500506052","name":"Bgy. 57 - Dap-dap","areaSqKm":0.228204171103},"geometry":{"type":"Polygon","coordinates":[[[123.76023010100005,13.145945297000026],[123.76103143500006,13.138915437000037],[123.75427200700005,13.140200209000056],[123.76023010100005,13.145945297000026]]]}},{"type":"Feature","properties":{"code":"0500506053","name":"Bgy. 45 - Dita","areaSqKm":0.843299931479},"geometry":{"type":"Polygon","coordinates":[[[123.73598625500006,13.18949483700004],[123.741405772,13.179365404000066],[123.74487018200011,13.174453090000043],[123.73353215500003,13.182885749000036],[123.73598625500006,13.18949483700004]]]}},{"type":"Feature","properties":{"code":"0500506054","name":"Bgy. 55 - Estanza","areaSqKm":4.63512870865},"geometry":{"type":"Polygon","coordinates":[[[123.72075893300007,13.13905752100004],[123.73487630400007,13.131952850000062],[123.72745329700001,13.105377665000049],[123.714692678,13.121344280000073],[123.72075893300007,13.13905752100004]]]}},{"type":"Feature","properties":{"code":"0500506055","name":"Bgy. 38 - Gogon","areaSqKm":0.9032874515},"geometry":{"type":"Polygon","coordinates":[[[123.74788156200009,13.162717181000062],[123.74920712000005,13.150963584000067],[123.74134716200001,13.152342236000038],[123.7416978980001,13.16157221900005],[123.74788156200009,13.162717181000062]]]}},{"type":"Feature","properties":{"code":"0500506056","name":"Bgy. 62 - Homapon","areaSqKm":7.0863480112},"geometry":{"type":"Polygon","coordinates":[[[123.75477116600007,13.106170035000048],[123.75418141500006,13.08613727200003],[123.74285187900011,13.084800993000044],[123.74372004100007,13.069804754000074],[123.73554329400008,13.06952414500006],[123.7386698040001,13.080712210000058],[123.72648520100006,13.08409103200006],[123.73764248300006,13.103644074000044],[123.75477116600007,13.106170035000048]]]}},{"type":"Feature","properties":{"code":"0500506057","name":"Bgy. 65 - Imalnod","areaSqKm":5.71598228473},"geometry":{"type":"Polygon","coordinates":[[[123.71621368100011,13.092493840000031],[123.73846943500007,13.077399596000078],[123.7341421970001,13.061037716000044],[123.72041504700007,13.055608247000066],[123.71621368100011,13.092493840000031]]]}},{"type":"Feature","properties":{"code":"0500506058","name":"Bgy. 54 - Mabinit","areaSqKm":3.29316823052},"geometry":{"type":"Polygon","coordinates":[[[123.7135393750001,13.216337023000051],[123.72043796900005,13.178754163000065],[123.70704998200006,13.215171674000032],[123.7135393750001,13.216337023000051]]]}},{"type":"Feature","properties":{"code":"0500506059","name":"Bgy. 63 - Mariawa","areaSqKm":4.34876568685},"geometry":{"type":"Polygon","coordinates":[[[123.71671517400011,13.117816222000044],[123.73764248300006,13.103644074000044],[123.72648520100006,13.08409103200006],[123.71621368100011,13.092493840000031],[123.71671517400011,13.117816222000044]]]}},{"type":"Feature","properties":{"code":"0500506060","name":"Bgy. 61 - Maslog","areaSqKm":6.34725692157},"geometry":{"type":"Polygon","coordinates":[[[123.78056497200009,13.11051346000005],[123.77572518800002,13.089546656000039],[123.75841817900005,13.092789093000022],[123.75477116600007,13.106170035000048],[123.76628281500007,13.120833448000042],[123.78056497200009,13.11051346000005]]]}},{"type":"Feature","properties":{"code":"0500506061","name":"Bgy. 50 - Padang","areaSqKm":11.3879684392},"geometry":{"type":"Polygon","coordinates":[[[123.68355123800006,13.253206272000057],[123.76430690900008,13.208693909000033],[123.76141536700004,13.201325857000029],[123.72801413800005,13.21848822000004],[123.70704998200006,13.215171674000032],[123.68355123800006,13.253206272000057]]]}},{"type":"Feature","properties":{"code":"0500506062","name":"Bgy. 44 - Pawa","areaSqKm":2.7113177358},"geometry":{"type":"Polygon","coordinates":[[[123.73730979600009,13.17834586500004],[123.74436065000009,13.16372331100007],[123.72914132200003,13.165393958000038],[123.72043796900005,13.178754163000065],[123.73730979600009,13.17834586500004]]]}},{"type":"Feature","properties":{"code":"0500506063","name":"Bgy. 59 - Puro","areaSqKm":2.34870880964},"geometry":{"type":"Polygon","coordinates":[[[123.76173948600001,13.136987377000025],[123.77323399000011,13.126829288000067],[123.76373608600011,13.117369221000047],[123.75289703500005,13.130028355000036],[123.76173948600001,13.136987377000025]]]}},{"type":"Feature","properties":{"code":"0500506064","name":"Bgy. 42 - Rawis","areaSqKm":1.5691767455},"geometry":{"type":"Polygon","coordinates":[[[123.74583400800009,13.174590936000072],[123.75473345900002,13.177360734000047],[123.75619876000007,13.16063768500004],[123.7468463890001,13.163035663000073],[123.74583400800009,13.174590936000072]]]}},{"type":"Feature","properties":{"code":"0500506065","name":"Bgy. 68 - San Francisco","areaSqKm":6.39540483397},"geometry":{"type":"Polygon","coordinates":[[[123.76946144300007,13.054510295000057],[123.79628199700005,13.04655516300005],[123.79643590300009,13.026671204000024],[123.775600929,13.028283157000033],[123.76946144300007,13.054510295000057]]]}},{"type":"Feature","properties":{"code":"0500506066","name":"Bgy. 46 - San Joaquin","areaSqKm":0.698106200209},"geometry":{"type":"Polygon","coordinates":[[[123.74028730500004,13.185270291000052],[123.74859409800001,13.176234790000024],[123.74487018200011,13.174453090000043],[123.74028730500004,13.185270291000052]]]}},{"type":"Feature","properties":{"code":"0500506067","name":"Bgy. 32 - San Roque","areaSqKm":0.247515382503},"geometry":{"type":"Polygon","coordinates":[[[123.75429723200011,13.158155613000076],[123.75624043700009,13.151090587000056],[123.7541113420001,13.150390655000024],[123.75429723200011,13.158155613000076]]]}},{"type":"Feature","properties":{"code":"0500506069","name":"Bgy. 43 - Tamaoyan","areaSqKm":1.10603354256},"geometry":{"type":"Polygon","coordinates":[[[123.73502761700001,13.17625765200006],[123.74718448600004,13.16774637800006],[123.7468463890001,13.163035663000073],[123.73502761700001,13.17625765200006]]]}},{"type":"Feature","properties":{"code":"0500506070","name":"Bgy. 56 - Taysan","areaSqKm":9.35941462783},"geometry":{"type":"Polygon","coordinates":[[[123.75054387500006,13.138056358000028],[123.76373608600011,13.117369221000047],[123.75477116600007,13.106170035000048],[123.72932151300006,13.103106296000021],[123.73564322100003,13.135319800000048],[123.75054387500006,13.138056358000028]]]}},{"type":"Feature","properties":{"code":"0500506071","name":"Bgy. 52 - Matanag","areaSqKm":2.0800353102},"geometry":{"type":"Polygon","coordinates":[[[123.72775436000006,13.20425576100007],[123.73908415500011,13.197046255000032],[123.73431356600008,13.190875469000048],[123.71953605100009,13.21739466300005],[123.72657729000002,13.218635439000025],[123.72775436000006,13.20425576100007]]]}},{"type":"Feature","properties":{"code":"0500506072","name":"Bgy. 10 - Cabugao","areaSqKm":0.0335452733443},"geometry":{"type":"Polygon","coordinates":[[[123.73208405300011,13.137955042000044],[123.73406099800002,13.138661200000058],[123.73348590300009,13.13713341500005],[123.73208405300011,13.137955042000044]]]}},{"type":"Feature","properties":{"code":"0500506073","name":"Bgy. 24 - Rizal Street","areaSqKm":0.159710087344},"geometry":{"type":"Polygon","coordinates":[[[123.75090811400003,13.142011768000032],[123.75231558100006,13.145215086000064],[123.75653677600008,13.14157332700006],[123.75090811400003,13.142011768000032]]]}},{"type":"Feature","properties":{"code":"0500506074","name":"Bgy. 58 - Buragwis","areaSqKm":0.738917023207},"geometry":{"type":"Polygon","coordinates":[[[123.75054387500006,13.138056358000028],[123.76173529300002,13.136991460000047],[123.75289703500005,13.130028355000036],[123.75054387500006,13.138056358000028]]]}},{"type":"Feature","properties":{"code":"0500506077","name":"Bgy. 60 - Lamba","areaSqKm":2.3134410299},"geometry":{"type":"Polygon","coordinates":[[[123.78112323700009,13.130933662000075],[123.78591231500002,13.11802751700003],[123.78318779400001,13.108705844000042],[123.76628281500007,13.120833448000042],[123.78112323700009,13.130933662000075]]]}}]}
